OBJECT_NAME,OBJECT_ID,EPOCH,MEAN_MOTION,ECCENTRICITY,INCLINATION,RA_OF_ASC_NODE,ARG_OF_PERICENTER,MEAN_ANOMALY,EPHEMERIS_TYPE,CLASSIFICATION_TYPE,NORAD_CAT_ID,ELEMENT_SET_NO,REV_AT_EPOCH,BSTAR,MEAN_MOTION_DOT,MEAN_MOTION_DDOT
AVION KALUGA 650,2023-091AF,2026-07-22T13:36:37.697472,15.20684387,.00096709,97.5069,263.0041,357.0462,3.0714,0,U,57195,999,16940,.25509674E-3,.5541E-4,0
HORS 2,2023-091AG,2026-07-22T13:23:47.694624,15.32691446,.00061988,97.5068,271.0869,325.6736,34.4105,0,U,57196,999,16994,.43236858E-3,.13586E-3,0
A-SEANSAT-PG1,2023-091AH,2026-07-22T13:05:11.550048,15.38067599,.00051514,97.5060,273.9068,317.4579,42.6266,0,U,57197,999,17014,.5567353E-3,.20812E-3,0
SITRO-AIS 10 (BURDAEV),2023-091AK,2026-07-22T13:10:16.713984,15.39830045,.00044516,97.5061,274.9651,307.1408,52.9430,0,U,57199,999,17020,.57929734E-3,.22945E-3,0
2023-091AL,2023-091AL,2026-07-22T13:28:23.145600,15.47464477,.00040927,97.5030,279.1770,273.4636,86.6146,0,U,57200,999,17047,.67670083E-3,.34735E-3,0
SITRO-AIS 9 (SHCHUKIN),2023-091AM,2026-07-22T12:31:23.478528,15.39307388,.00046635,97.5059,274.6388,307.7307,52.3516,0,U,57201,999,17018,.51691168E-3,.2011E-3,0
CSTP 1.1 (STC 1.1),2023-091AN,2026-07-22T13:49:50.381184,15.19393411,.00088173,97.5095,262.1899,357.2357,2.8828,0,U,57202,999,16933,.24228552E-3,.5063E-4,0
UTMN 2 (RS27S),2023-091AP,2026-07-22T13:58:05.748672,15.32826864,.00061249,97.5067,271.3099,320.0119,40.0671,0,U,57203,999,16996,.42688626E-3,.1347E-3,0
SITRO-AIS 12 (SMIRENNIY),2023-091AQ,2026-07-22T13:41:46.113504,15.39607119,.00043366,97.5071,275.1786,299.1373,60.9438,0,U,57204,999,17021,.53391013E-3,.20981E-3,0
2023-091AS,2023-091AS,2026-07-22T13:47:34.054080,15.69352128,.00046408,97.5008,285.7623,220.8544,139.2371,0,U,57206,999,17093,.10259748E-2,.12134E-2,0
SITRO-AIS 11 (SHEFFER),2023-091AU,2026-07-22T13:46:38.310528,15.40057790,.00042887,97.5070,275.4514,298.3320,61.7492,0,U,57208,999,17023,.54234858E-3,.21634E-3,0
H2SAT (HEINRICH HERTZ),2023-093A,2026-07-22T07:54:14.518944,1.00272215,.00007813,0.0246,107.8460,228.3551,83.1421,0,U,57213,999,1126,0,.5E-7,0
SYRACUSE 4B,2023-093B,2026-07-22T10:12:38.663136,1.00270282,.00001994,0.0244,61.0499,98.5837,287.2438,0,U,57214,999,731,0,0,0
KUZGTU 1 (RS47S),2023-091AV,2026-07-22T12:59:32.402400,15.30584045,.00093562,97.5043,268.3961,338.5805,21.5043,0,U,57217,999,16978,.42466939E-3,.12501E-3,0
STARLINK-5525,2023-094A,2026-07-22T10:19:15.175200,15.27572440,.00012052,43.0021,349.6636,257.1634,102.9083,0,U,57218,999,16772,.22271509E-4,.351E-5,0
STARLINK-5520,2023-094B,2026-07-22T10:24:04.139136,15.27581019,.00014885,43.0034,353.0950,257.8942,102.1743,0,U,57219,999,16768,.46398522E-4,.1015E-4,0
STARLINK-5880,2023-094C,2026-07-22T10:33:19.323072,15.27579029,.00012462,43.0039,353.1447,262.1319,97.9391,0,U,57220,999,16768,.18055566E-4,.235E-5,0
STARLINK-5870,2023-094E,2026-07-22T11:33:01.599264,15.27582009,.00015152,42.9997,349.1817,258.7758,101.2923,0,U,57222,999,16836,.46294579E-4,.1012E-4,0
STARLINK-5519,2023-094F,2026-07-22T10:07:24.987936,15.27581663,.00018779,43.0048,353.0154,280.3147,79.7493,0,U,57223,999,16768,.38630037E-4,.801E-5,0
STARLINK-5983,2023-094G,2026-07-21T18:22:51.694176,15.27576258,.00014174,43.0024,353.2750,266.7839,93.2850,0,U,57224,999,16762,.33124084E-4,.649E-5,0
STARLINK-6294,2023-094H,2026-07-22T11:16:35.085792,15.27580690,.00011586,43.0022,349.9536,245.1047,114.9685,0,U,57225,999,16772,.8895373E-5,-.17E-6,0
STARLINK-6350,2023-094J,2026-07-21T19:14:40.322112,15.27569336,.00017519,43.0058,353.5448,266.5683,93.4968,0,U,57226,999,16762,-.20455107E-4,-.825E-5,0
STARLINK-5996,2023-094K,2026-07-21T18:31:24.186144,15.27577391,.00013995,43.0027,356.7252,262.4193,97.6500,0,U,57227,999,16758,.67074259E-4,.1584E-4,0
STARLINK-6230,2023-094L,2026-07-22T11:18:13.476384,15.27577905,.0001513,43.0040,349.1077,263.4038,96.6642,0,U,57228,999,16773,.22134085E-4,.347E-5,0
STARLINK-6233,2023-094M,2026-07-21T19:20:13.271424,15.27578892,.00017443,43.0054,353.5768,266.6892,93.3761,0,U,57229,999,16762,-.9459797E-5,-.523E-5,0
STARLINK-6250,2023-094N,2026-07-22T11:05:29.015232,15.27576407,.00018718,43.0048,349.9014,281.6708,78.3933,0,U,57230,999,16772,.2860798E-4,.525E-5,0
STARLINK-5840,2023-094P,2026-07-22T10:50:40.791264,15.27578412,.00013284,43.0043,349.8196,272.5709,87.4990,0,U,57231,999,16772,.7984448E-5,-.42E-6,0
STARLINK-5872,2023-094Q,2026-07-22T09:09:09.074592,15.27564143,.00018873,43.0062,350.1450,264.8961,95.1676,0,U,57232,999,16837,-.31464412E-4,-.1128E-4,0
STARLINK-5866,2023-094R,2026-07-22T10:34:01.872480,15.27585443,.00011461,43.0033,349.7363,274.7785,85.2936,0,U,57233,999,16772,.62141114E-4,.1449E-4,0
STARLINK-6368,2023-094S,2026-07-21T18:15:27.589536,15.27577436,.00015925,43.0035,353.2291,265.0716,94.9954,0,U,57234,999,16762,.12985531E-4,.95E-6,0
