AVION KALUGA 650        
1 57195U 23091AF  26203.56710298  .00005541  00000+0  25510-3 0  9993
2 57195  97.5069 263.0041 0009670 357.0462   3.0714 15.20684387169409
HORS 2                  
1 57196U 23091AG  26203.55819091  .00013586  00000+0  43237-3 0  9998
2 57196  97.5068 271.0869 0006198 325.6736  34.4105 15.32691446169941
A-SEANSAT-PG1           
1 57197U 23091AH  26203.54527257  .00020812  00000+0  55674-3 0  9996
2 57197  97.5060 273.9068 0005151 317.4579  42.6266 15.38067599170143
SITRO-AIS 10 (BURDAEV)  
1 57199U 23091AK  26203.54880456  .00022945  00000+0  57930-3 0  9997
2 57199  97.5061 274.9651 0004451 307.1408  52.9430 15.39830045170203
2023-091AL              
1 57200U 23091AL  26203.56137900  .00034735  00000+0  67670-3 0  9993
2 57200  97.5030 279.1770 0004092 273.4636  86.6146 15.47464477170478
SITRO-AIS 9 (SHCHUKIN)  
1 57201U 23091AM  26203.52179952  .00020110  00000+0  51691-3 0  9991
2 57201  97.5059 274.6388 0004663 307.7307  52.3516 15.39307388170182
CSTP 1.1 (STC 1.1)      
1 57202U 23091AN  26203.57627756  .00005063  00000+0  24229-3 0  9994
2 57202  97.5095 262.1899 0008817 357.2357   2.8828 15.19393411169333
UTMN 2 (RS27S)          
1 57203U 23091AP  26203.58201098  .00013470  00000+0  42689-3 0  9994
2 57203  97.5067 271.3099 0006124 320.0119  40.0671 15.32826864169967
SITRO-AIS 12 (SMIRENNIY)
1 57204U 23091AQ  26203.57067261  .00020981  00000+0  53391-3 0  9993
2 57204  97.5071 275.1786 0004336 299.1373  60.9438 15.39607119170218
2023-091AS              
1 57206U 23091AS  26203.57469970  .00121340  00000+0  10260-2 0  9996
2 57206  97.5008 285.7623 0004640 220.8544 139.2371 15.69352128170931
SITRO-AIS 11 (SHEFFER)  
1 57208U 23091AU  26203.57405452  .00021634  00000+0  54235-3 0  9999
2 57208  97.5070 275.4514 0004288 298.3320  61.7492 15.40057790170239
H2SAT (HEINRICH HERTZ)  
1 57213U 23093A   26203.32933471  .00000005  00000+0  00000+0 0  9993
2 57213   0.0246 107.8460 0000781 228.3551  83.1421  1.00272215 11269
SYRACUSE 4B             
1 57214U 23093B   26203.42544749  .00000000  00000+0  00000+0 0  9996
2 57214   0.0244  61.0499 0000199  98.5837 287.2438  1.00270282  7316
KUZGTU 1 (RS47S)        
1 57217U 23091AV  26203.54134725  .00012501  00000+0  42467-3 0  9995
2 57217  97.5043 268.3961 0009356 338.5805  21.5043 15.30584045169783
STARLINK-5525           
1 57218U 23094A   26203.43003675  .00000351  00000+0  22272-4 0  9999
2 57218  43.0021 349.6636 0001205 257.1634 102.9083 15.27572440167721
STARLINK-5520           
1 57219U 23094B   26203.43338124  .00001015  00000+0  46399-4 0  9994
2 57219  43.0034 353.0950 0001488 257.8942 102.1743 15.27581019167688
STARLINK-5880           
1 57220U 23094C   26203.43980698  .00000235  00000+0  18056-4 0  9997
2 57220  43.0039 353.1447 0001246 262.1319  97.9391 15.27579029167684
STARLINK-5870           
1 57222U 23094E   26203.48126851  .00001012  00000+0  46295-4 0  9997
2 57222  42.9997 349.1817 0001515 258.7758 101.2923 15.27582009168368
STARLINK-5519           
1 57223U 23094F   26203.42181699  .00000801  00000+0  38630-4 0  9992
2 57223  43.0048 353.0154 0001877 280.3147  79.7493 15.27581663167680
STARLINK-5983           
1 57224U 23094G   26202.76587609  .00000649  00000+0  33124-4 0  9993
2 57224  43.0024 353.2750 0001417 266.7839  93.2850 15.27576258167621
STARLINK-6294           
1 57225U 23094H   26203.46985053 -.00000017  00000+0  88954-5 0  9999
2 57225  43.0022 349.9536 0001158 245.1047 114.9685 15.27580690167721
STARLINK-6350           
1 57226U 23094J   26202.80185558 -.00000825  00000+0 -20455-4 0  9998
2 57226  43.0058 353.5448 0001751 266.5683  93.4968 15.27569336167624
STARLINK-5996           
1 57227U 23094K   26202.77180771  .00001584  00000+0  67074-4 0  9996
2 57227  43.0027 356.7252 0001399 262.4193  97.6500 15.27577391167581
STARLINK-6230           
1 57228U 23094L   26203.47098931  .00000347  00000+0  22134-4 0  9995
2 57228  43.0040 349.1077 0001513 263.4038  96.6642 15.27577905167739
STARLINK-6233           
1 57229U 23094M   26202.80570916 -.00000523  00000+0 -94598-5 0  9992
2 57229  43.0054 353.5768 0001744 266.6892  93.3761 15.27578892167620
STARLINK-6250           
1 57230U 23094N   26203.46214138  .00000525  00000+0  28608-4 0  9996
2 57230  43.0048 349.9014 0001871 281.6708  78.3933 15.27576407167727
STARLINK-5840           
1 57231U 23094P   26203.45186101 -.00000042  00000+0  79844-5 0  9998
2 57231  43.0043 349.8196 0001328 272.5709  87.4990 15.27578412167722
STARLINK-5872           
1 57232U 23094Q   26203.38135503 -.00001128  00000+0 -31464-4 0  9993
2 57232  43.0062 350.1450 0001887 264.8961  95.1676 15.27564143168371
STARLINK-5866           
1 57233U 23094R   26203.44029945  .00001449  00000+0  62141-4 0  9993
2 57233  43.0033 349.7363 0001146 274.7785  85.2936 15.27585443167722
STARLINK-6368           
1 57234U 23094S   26202.76073599  .00000095  00000+0  12986-4 0  9990
2 57234  43.0035 353.2291 0001592 265.0716  94.9954 15.27577436167626
